TIANMU-1 07             
1 57399U 23101A   26065.57454230  .00008352  00000+0  29795-3 0  9991
2 57399  97.2728 118.5929 0004609 142.4105 217.7458 15.29118809145964
STARLINK-32666          
1 62214U 24229Y   26068.92976645  .00036145  00000+0  13159-2 0  9993
2 62214  43.0048 269.7347 0002793 257.7791 102.2748 15.27594617 70595
